IRIDIUM 150             
1 43257U 18030J   25222.53869843 -.00000039  00000+0 -20902-4 0  9992
2 43257  86.3916  60.3266 0002006  95.3113 264.8311 14.34216779385655
IRIDIUM 143             
1 43258U 18030K   25221.61267899  .00000110  00000+0  32099-4 0  9992
2 43258  86.3924  60.7951 0002229 101.8469 258.2977 14.34217388385432
IRIDIUM 161             
1 43478U 18047C   25221.52687338  .00000212  00000+0  57168-4 0  9995
2 43478  86.4476 218.6428 0002358  83.7180 276.4290 14.43279275380183
IRIDIUM 152             
1 43479U 18047D   25222.49240089  .00000146  00000+0  44963-4 0  9996
2 43479  86.3953 218.0998 0002196  86.6655 273.4792 14.34218032377968
IRIDIUM 147             
1 43480U 18047E   25221.52197014  .00000061  00000+0  14677-4 0  9995
2 43480  86.3956 218.5053 0002410  86.6405 273.5067 14.34218132377813
IRIDIUM 110             
1 43481U 18047F   25222.43530304  .00000025  00000+0  18243-5 0  9994
2 43481  86.3959 218.2074 0002317  76.9401 283.2053 14.34217817377936
IRIDIUM 162             
1 43482U 18047G   25221.52057607  .00000178  00000+0  46881-4 0  9991
2 43482  86.4478 218.5402 0002146  82.0882 278.0562 14.43281417380177
IRIDIUM 160             
1 43569U 18061A   25222.31137163  .00000046  00000+0  94875-5 0  9998
2 43569  86.4015 186.6824 0002292  81.1110 279.0345 14.34217805368816
